ONEWEB-0430             
1 50501U 21132AJ  26107.09478417  .00000084  00000+0  17909-3 0  9996
2 50501  87.9212 347.6085 0001778  73.5317 286.6010 13.18687819213577
ONEWEB-0432             
1 50502U 21132AK  26107.12915867  .00000017  00000+0  98524-5 0  9996
2 50502  87.9221 347.5722 0001091  68.0711 292.0537 13.18648037213530
ONEWEB-0440             
1 50503U 21132AL  26107.11458913  .00000054  00000+0  10432-3 0  9991
2 50503  87.9224 347.5960 0002134  86.9659 273.1717 13.18686343213528
ONEWEB-0450             
1 50504U 21132AM  26107.10811996  .00000108  00000+0  24089-3 0  9998
2 50504  87.9212 347.6090 0001893  75.8405 284.2938 13.18683563213550
ONEWEB-0410             
1 51622U 22012A   26107.16458989 -.00000001  00000+0 -34650-4 0  9993
2 51622  87.9200  17.9732 0001186 125.9629 234.1613 13.17647070205668
ONEWEB-0411             
1 51623U 22012B   26107.23242585 -.00000316  00000+0 -94141-3 0  9994
2 51623  87.8834  48.3910 0002099  64.5773 295.5571 13.10368296201303
ONEWEB-0415             
1 51624U 22012C   26107.22910289 -.00000185  00000+0 -56665-3 0  9990
2 51624  87.8840  48.3939 0001957  73.8702 286.2641 13.10367199201305
ONEWEB-0416             
1 51625U 22012D   26107.24071639 -.00000565  00000+0 -16548-2 0  9997
2 51625  87.8834  48.4112 0001577  68.0042 292.1253 13.10370768201349
ONEWEB-0422             
1 51626U 22012E   26107.17472968  .00000017  00000+0  11785-4 0  9990
2 51626  87.9198  17.9740 0002479  78.0258 282.1151 13.17648852205770
ONEWEB-0423             
1 51627U 22012F   26107.16796265 -.00000222  00000+0 -60416-3 0  9993
2 51627  87.9192  17.9838 0001935  81.2960 278.8391 13.17648541205666
ONEWEB-0425             
1 51628U 22012G   26107.25067104 -.00000178  00000+0 -54607-3 0  9992
2 51628  87.8849  48.3898 0001829  72.6012 287.5316 13.10371132201340
ONEWEB-0428             
1 51629U 22012H   26107.23076693 -.00000296  00000+0 -88474-3 0  9994
2 51629  87.8826  48.4034 0002072  81.3155 278.8208 13.10367816201308
ONEWEB-0431             
1 51630U 22012J   26107.27712482  .00000579  00000+0  16212-2 0  9995
2 51630  87.8849  48.3836 0002184  63.1511 296.9840 13.10374902201365
ONEWEB-0434             
1 51631U 22012K   26107.25412603 -.00000508  00000+0 -14919-2 0  9992
2 51631  87.8844  48.4138 0001668  99.2446 260.8870 13.10373581201343
ONEWEB-0435             
1 51632U 22012L   26107.26229045 -.00000082  00000+0 -27112-3 0  9997
2 51632  87.8842  48.4015 0002140  77.5776 282.5591 13.10374736201330
ONEWEB-0436             
1 51633U 22012M   26107.15953832 -.00000002  00000+0 -38944-4 0  9992
2 51633  87.9193  17.9641 0002034  75.9660 284.1697 13.17650380205645
