[{"OBJECT_NAME":"ONEWEB-0430","OBJECT_ID":"2021-132AJ","EPOCH":"2026-04-17T02:16:29.352288","MEAN_MOTION":13.18687819,"ECCENTRICITY":0.0001778,"INCLINATION":87.9212,"RA_OF_ASC_NODE":347.6085,"ARG_OF_PERICENTER":73.5317,"MEAN_ANOMALY":286.601,"EPHEMERIS_TYPE":0,"CLASSIFICATION_TYPE":"U","NORAD_CAT_ID":50501,"ELEMENT_SET_NO":999,"REV_AT_EPOCH":21357,"BSTAR":0.00017909,"MEAN_MOTION_DOT":8.4e-07,"MEAN_MOTION_DDOT":0.0},{"OBJECT_NAME":"ONEWEB-0432","OBJECT_ID":"2021-132AK","EPOCH":"2026-04-17T03:05:59.309088","MEAN_MOTION":13.18648037,"ECCENTRICITY":0.0001091,"INCLINATION":87.9221,"RA_OF_ASC_NODE":347.5722,"ARG_OF_PERICENTER":68.0711,"MEAN_ANOMALY":292.0537,"EPHEMERIS_TYPE":0,"CLASSIFICATION_TYPE":"U","NORAD_CAT_ID":50502,"ELEMENT_SET_NO":999,"REV_AT_EPOCH":21353,"BSTAR":9.8524e-06,"MEAN_MOTION_DOT":1.7e-07,"MEAN_MOTION_DDOT":0.0},{"OBJECT_NAME":"ONEWEB-0440","OBJECT_ID":"2021-132AL","EPOCH":"2026-04-17T02:45:00.500832","MEAN_MOTION":13.18686343,"ECCENTRICITY":0.0002134,"INCLINATION":87.9224,"RA_OF_ASC_NODE":347.596,"ARG_OF_PERICENTER":86.9659,"MEAN_ANOMALY":273.1717,"EPHEMERIS_TYPE":0,"CLASSIFICATION_TYPE":"U","NORAD_CAT_ID":50503,"ELEMENT_SET_NO":999,"REV_AT_EPOCH":21352,"BSTAR":0.00010432,"MEAN_MOTION_DOT":5.4e-07,"MEAN_MOTION_DDOT":0.0},{"OBJECT_NAME":"ONEWEB-0450","OBJECT_ID":"2021-132AM","EPOCH":"2026-04-17T02:35:41.564544","MEAN_MOTION":13.18683563,"ECCENTRICITY":0.0001893,"INCLINATION":87.9212,"RA_OF_ASC_NODE":347.609,"ARG_OF_PERICENTER":75.8405,"MEAN_ANOMALY":284.2938,"EPHEMERIS_TYPE":0,"CLASSIFICATION_TYPE":"U","NORAD_CAT_ID":50504,"ELEMENT_SET_NO":999,"REV_AT_EPOCH":21355,"BSTAR":0.00024089,"MEAN_MOTION_DOT":1.08e-06,"MEAN_MOTION_DDOT":0.0},{"OBJECT_NAME":"ONEWEB-0410","OBJECT_ID":"2022-012A","EPOCH":"2026-04-17T03:57:00.566496","MEAN_MOTION":13.1764707,"ECCENTRICITY":0.0001186,"INCLINATION":87.92,"RA_OF_ASC_NODE":17.9732,"ARG_OF_PERICENTER":125.9629,"MEAN_ANOMALY":234.1613,"EPHEMERIS_TYPE":0,"CLASSIFICATION_TYPE":"U","NORAD_CAT_ID":51622,"ELEMENT_SET_NO":999,"REV_AT_EPOCH":20566,"BSTAR":-3.465e-05,"MEAN_MOTION_DOT":-1e-08,"MEAN_MOTION_DDOT":0.0},{"OBJECT_NAME":"ONEWEB-0411","OBJECT_ID":"2022-012B","EPOCH":"2026-04-17T05:34:41.593440","MEAN_MOTION":13.10368296,"ECCENTRICITY":0.0002099,"INCLINATION":87.8834,"RA_OF_ASC_NODE":48.391,"ARG_OF_PERICENTER":64.5773,"MEAN_ANOMALY":295.5571,"EPHEMERIS_TYPE":0,"CLASSIFICATION_TYPE":"U","NORAD_CAT_ID":51623,"ELEMENT_SET_NO":999,"REV_AT_EPOCH":20130,"BSTAR":-0.00094141,"MEAN_MOTION_DOT":-3.16e-06,"MEAN_MOTION_DDOT":0.0},{"OBJECT_NAME":"ONEWEB-0415","OBJECT_ID":"2022-012C","EPOCH":"2026-04-17T05:29:54.489696","MEAN_MOTION":13.10367199,"ECCENTRICITY":0.0001957,"INCLINATION":87.884,"RA_OF_ASC_NODE":48.3939,"ARG_OF_PERICENTER":73.8702,"MEAN_ANOMALY":286.2641,"EPHEMERIS_TYPE":0,"CLASSIFICATION_TYPE":"U","NORAD_CAT_ID":51624,"ELEMENT_SET_NO":999,"REV_AT_EPOCH":20130,"BSTAR":-0.00056665,"MEAN_MOTION_DOT":-1.85e-06,"MEAN_MOTION_DDOT":0.0},{"OBJECT_NAME":"ONEWEB-0416","OBJECT_ID":"2022-012D","EPOCH":"2026-04-17T05:46:37.896096","MEAN_MOTION":13.10370768,"ECCENTRICITY":0.0001577,"INCLINATION":87.8834,"RA_OF_ASC_NODE":48.4112,"ARG_OF_PERICENTER":68.0042,"MEAN_ANOMALY":292.1253,"EPHEMERIS_TYPE":0,"CLASSIFICATION_TYPE":"U","NORAD_CAT_ID":51625,"ELEMENT_SET_NO":999,"REV_AT_EPOCH":20134,"BSTAR":-0.0016547999999999999,"MEAN_MOTION_DOT":-5.65e-06,"MEAN_MOTION_DDOT":0.0},{"OBJECT_NAME":"ONEWEB-0422","OBJECT_ID":"2022-012E","EPOCH":"2026-04-17T04:11:36.644352","MEAN_MOTION":13.17648852,"ECCENTRICITY":0.0002479,"INCLINATION":87.9198,"RA_OF_ASC_NODE":17.974,"ARG_OF_PERICENTER":78.0258,"MEAN_ANOMALY":282.1151,"EPHEMERIS_TYPE":0,"CLASSIFICATION_TYPE":"U","NORAD_CAT_ID":51626,"ELEMENT_SET_NO":999,"REV_AT_EPOCH":20577,"BSTAR":1.1785e-05,"MEAN_MOTION_DOT":1.7e-07,"MEAN_MOTION_DDOT":0.0},{"OBJECT_NAME":"ONEWEB-0423","OBJECT_ID":"2022-012F","EPOCH":"2026-04-17T04:01:51.972960","MEAN_MOTION":13.17648541,"ECCENTRICITY":0.0001935,"INCLINATION":87.9192,"RA_OF_ASC_NODE":17.9838,"ARG_OF_PERICENTER":81.296,"MEAN_ANOMALY":278.8391,"EPHEMERIS_TYPE":0,"CLASSIFICATION_TYPE":"U","NORAD_CAT_ID":51627,"ELEMENT_SET_NO":999,"REV_AT_EPOCH":20566,"BSTAR":-0.0006041600000000001,"MEAN_MOTION_DOT":-2.22e-06,"MEAN_MOTION_DDOT":0.0},{"OBJECT_NAME":"ONEWEB-0425","OBJECT_ID":"2022-012G","EPOCH":"2026-04-17T06:00:57.977856","MEAN_MOTION":13.10371132,"ECCENTRICITY":0.0001829,"INCLINATION":87.8849,"RA_OF_ASC_NODE":48.3898,"ARG_OF_PERICENTER":72.6012,"MEAN_ANOMALY":287.5316,"EPHEMERIS_TYPE":0,"CLASSIFICATION_TYPE":"U","NORAD_CAT_ID":51628,"ELEMENT_SET_NO":999,"REV_AT_EPOCH":20134,"BSTAR":-0.0005460700000000001,"MEAN_MOTION_DOT":-1.78e-06,"MEAN_MOTION_DDOT":0.0},{"OBJECT_NAME":"ONEWEB-0428","OBJECT_ID":"2022-012H","EPOCH":"2026-04-17T05:32:18.262752","MEAN_MOTION":13.10367816,"ECCENTRICITY":0.0002072,"INCLINATION":87.8826,"RA_OF_ASC_NODE":48.4034,"ARG_OF_PERICENTER":81.3155,"MEAN_ANOMALY":278.8208,"EPHEMERIS_TYPE":0,"CLASSIFICATION_TYPE":"U","NORAD_CAT_ID":51629,"ELEMENT_SET_NO":999,"REV_AT_EPOCH":20130,"BSTAR":-0.00088474,"MEAN_MOTION_DOT":-2.96e-06,"MEAN_MOTION_DDOT":0.0},{"OBJECT_NAME":"ONEWEB-0431","OBJECT_ID":"2022-012J","EPOCH":"2026-04-17T06:39:03.584448","MEAN_MOTION":13.10374902,"ECCENTRICITY":0.0002184,"INCLINATION":87.8849,"RA_OF_ASC_NODE":48.3836,"ARG_OF_PERICENTER":63.1511,"MEAN_ANOMALY":296.984,"EPHEMERIS_TYPE":0,"CLASSIFICATION_TYPE":"U","NORAD_CAT_ID":51630,"ELEMENT_SET_NO":999,"REV_AT_EPOCH":20136,"BSTAR":0.0016212,"MEAN_MOTION_DOT":5.79e-06,"MEAN_MOTION_DDOT":0.0},{"OBJECT_NAME":"ONEWEB-0434","OBJECT_ID":"2022-012K","EPOCH":"2026-04-17T06:05:56.488992","MEAN_MOTION":13.10373581,"ECCENTRICITY":0.0001668,"INCLINATION":87.8844,"RA_OF_ASC_NODE":48.4138,"ARG_OF_PERICENTER":99.2446,"MEAN_ANOMALY":260.887,"EPHEMERIS_TYPE":0,"CLASSIFICATION_TYPE":"U","NORAD_CAT_ID":51631,"ELEMENT_SET_NO":999,"REV_AT_EPOCH":20134,"BSTAR":-0.0014919,"MEAN_MOTION_DOT":-5.08e-06,"MEAN_MOTION_DDOT":0.0},{"OBJECT_NAME":"ONEWEB-0435","OBJECT_ID":"2022-012L","EPOCH":"2026-04-17T06:17:41.894880","MEAN_MOTION":13.10374736,"ECCENTRICITY":0.000214,"INCLINATION":87.8842,"RA_OF_ASC_NODE":48.4015,"ARG_OF_PERICENTER":77.5776,"MEAN_ANOMALY":282.5591,"EPHEMERIS_TYPE":0,"CLASSIFICATION_TYPE":"U","NORAD_CAT_ID":51632,"ELEMENT_SET_NO":999,"REV_AT_EPOCH":20133,"BSTAR":-0.00027112,"MEAN_MOTION_DOT":-8.2e-07,"MEAN_MOTION_DDOT":0.0},{"OBJECT_NAME":"ONEWEB-0436","OBJECT_ID":"2022-012M","EPOCH":"2026-04-17T03:49:44.110848","MEAN_MOTION":13.1765038,"ECCENTRICITY":0.0002034,"INCLINATION":87.9193,"RA_OF_ASC_NODE":17.9641,"ARG_OF_PERICENTER":75.966,"MEAN_ANOMALY":284.1697,"EPHEMERIS_TYPE":0,"CLASSIFICATION_TYPE":"U","NORAD_CAT_ID":51633,"ELEMENT_SET_NO":999,"REV_AT_EPOCH":20564,"BSTAR":-3.8944000000000005e-05,"MEAN_MOTION_DOT":-2e-08,"MEAN_MOTION_DDOT":0.0}]